ALICE                   
1 39467U 13072F   26068.66905005  .00012311  00000+0  62398-3 0  9993
2 39467 120.4625 282.3278 0159202 246.5562 111.8695 15.07155655100262
STARLINK-32037          
1 60283U 24132F   26068.39311660  .00000058  00000+0  14079-4 0  9999
2 60283  53.1605  53.9022 0001143  97.8508 262.2622 15.30186883 91519
